NORAD_CAT_ID,OBJECT_NAME,OBJECT_TYPE,EPOCH,MEAN_MOTION,ECCENTRICITY,INCLINATION,RA_OF_ASC_NODE,ARG_OF_PERICENTER,MEAN_ANOMALY,BSTAR,MEAN_MOTION_DOT,MEAN_MOTION_DDOT,TLE_LINE0,TLE_LINE1,TLE_LINE2,SEMIMAJOR_AXIS,PERIOD,APOGEE,PERIGEE,DECAYED
53160.0,STARLINK-4096,PAYLOAD,2022-12-27 12:14:08,15.08853623,0.0002102,53.2176,8.2762,47.6276,312.4894,0.00027343,4.068e-05,0.0,0 STARLINK-4096,1 53160U 22083AE  22361.50982428  .00004068  00000-0  27343-3 0  9992,2 53160  53.2176   8.2762 0002102  47.6276 312.4894 15.08853623 25631,6917.839,95.437,541.158,538.25,0.0
53160.0,STARLINK-4096,PAYLOAD,2022-12-28 00:57:13,15.08856397,0.0002126999999999,53.2175,5.8968,49.179,310.9386,0.00031442,4.722e-05,0.0,0 STARLINK-4096,1 53160U 22083AE  22362.03974062  .00004722  00000-0  31442-3 0  9998,2 53160  53.2175   5.8968 0002127  49.1790 310.9386 15.08856397 25085,6917.83,95.437,541.1669999999998,538.224,0.0
53160.0,STARLINK-4096,PAYLOAD,2022-12-29 03:58:47,15.08830767,0.0001776,53.2186,0.8413,55.5323,304.5837,-0.00030037,-5.064e-05,0.0,0 STARLINK-4096,1 53160U 22083AE  22363.16582726 -.00005064  00000-0 -30037-3 0  9996,2 53160  53.2186   0.8413 0001776  55.5323 304.5837 15.08830767 25880,6917.909000000002,95.438,541.002,538.545,0.0
53160.0,STARLINK-4096,PAYLOAD,2022-12-29 10:20:20,15.08827948,0.0001844999999999,53.218,359.6525,45.3734,314.7409,-0.00025517,-4.346e-05,0.0,0 STARLINK-4096,1 53160U 22083AE  22363.43079419 -.00004346  00000-0 -25517-3 0  9995,2 53160  53.2180 359.6525 0001845  45.3734 314.7409 15.08827948 25293,6917.917,95.438,541.059,538.506,0.0
53160.0,STARLINK-4096,PAYLOAD,2022-12-30 08:35:44,15.08847388,0.0001759,53.2178,355.4897,43.2732,316.8398,0.00065835,0.00010207,0.0,0 STARLINK-4096,1 53160U 22083AE  22364.35815565  .00010207  00000-0  65835-3 0  9995,2 53160  53.2178 355.4897 0001759  43.2732 316.8398 15.08847388 26061,6917.858,95.437,540.94,538.506,0.0
53160.0,STARLINK-4096,PAYLOAD,2022-12-31 08:26:30,15.08866761,0.0001871,53.2175,351.0299,41.5571,318.5563,0.00039055,5.937e-05,0.0,0 STARLINK-4096,1 53160U 22083AE  22365.35174267  .00005937  00000-0  39055-3 0  9992,2 53160  53.2175 351.0299 0001871  41.5571 318.5563 15.08866761 25588,6917.799,95.436,540.9580000000002,538.369,0.0
53160.0,STARLINK-4096,PAYLOAD,2022-12-31 16:23:26,15.08860494,0.0002083,53.2172,349.543,45.8264,314.2899,0.00024175,3.563e-05,0.0,0 STARLINK-4096,1 53160U 22083AE  22365.68294167  .00003563  00000-0  24175-3 0  9990,2 53160  53.2172 349.5430 0002083  45.8264 314.2899 15.08860494 25634,6917.818,95.436,541.124,538.242,0.0
53160.0,STARLINK-4096,PAYLOAD,2023-01-01 05:06:31,15.08823952,0.0001022999999999,53.2174,347.1641,358.5279,1.571,-0.00064087,-0.00010468,0.0,0 STARLINK-4096,1 53160U 22083AE  23001.21286583 -.00010468  00000-0 -64087-3 0  9990,2 53160  53.2174 347.1641 0001023 358.5279   1.5710 15.08823952 26342,6917.929,95.439,540.502,539.087,0.0
53160.0,STARLINK-4096,PAYLOAD,2023-01-01 06:41:54,15.08834504,0.0001895,53.2173,346.8668,41.8973,318.2164,-0.00032762,-5.498e-05,0.0,0 STARLINK-4096,1 53160U 22083AE  23001.27910587 -.00005498  00000-0 -32762-3 0  9996,2 53160  53.2173 346.8668 0001895  41.8973 318.2164 15.08834504 26353,6917.897,95.438,541.073,538.451,0.0
53160.0,STARLINK-4096,PAYLOAD,2023-01-02 08:08:06,15.08829203,0.0001973,53.2174,342.1087,45.3971,314.7182,0.00011924,1.6100000000000002e-05,0.0,0 STARLINK-4096,1 53160U 22083AE  23002.33895960  .00001610  00000-0  11924-3 0  9998,2 53160  53.2174 342.1087 0001973  45.3971 314.7182 15.08829203 26511,6917.913000000001,95.438,541.143,538.413,0.0
53160.0,STARLINK-4096,PAYLOAD,2023-01-02 16:05:01,15.08841311,0.0001973,53.218,340.6226,44.9957,315.1195,0.0001457,2.032e-05,0.0,0 STARLINK-4096,1 53160U 22083AE  23002.67015554  .00002032  00000-0  14570-3 0  9997,2 53160  53.2180 340.6226 0001973  44.9957 315.1195 15.08841311 26563,6917.876,95.437,541.106,538.376,0.0
53160.0,STARLINK-4096,PAYLOAD,2023-01-03 01:37:20,15.08835276,0.0001859,53.218,338.8392,43.7391,316.3748,0.00025031,3.697e-05,0.0,0 STARLINK-4096,1 53160U 22083AE  23003.06760061  .00003697  00000-0  25031-3 0  9993,2 53160  53.2180 338.8392 0001859  43.7391 316.3748 15.08835276 26625,6917.895,95.438,541.0459999999998,538.474,0.0
53160.0,STARLINK-4096,PAYLOAD,2023-01-03 09:34:16,15.08842994,0.0001966,53.2184,337.3517,47.0746,313.0411,0.00042627,6.503e-05,0.0,0 STARLINK-4096,1 53160U 22083AE  23003.39880168  .00006503  00000-0  42627-3 0  9999,2 53160  53.2184 337.3517 0001966  47.0746 313.0411 15.08842994 26044,6917.871,95.437,541.096,538.376,0.0
53160.0,STARLINK-4096,PAYLOAD,2023-01-04 04:38:54,15.08832253,0.0001934,53.2183,333.7834,46.6577,313.4576,6.701399999999999e-05,7.78e-06,0.0,0 STARLINK-4096,1 53160U 22083AE  23004.19368788  .00000778  00000-0  67014-4 0  9993,2 53160  53.2183 333.7834 0001934  46.6577 313.4576 15.08832253 26792,6917.904,95.438,541.107,538.431,0.0
53160.0,STARLINK-4096,PAYLOAD,2023-01-04 09:25:03,15.08837231,0.000188,53.2189,332.891,45.6187,314.4959,0.00014275,1.984e-05,0.0,0 STARLINK-4096,1 53160U 22083AE  23004.39240493  .00001984  00000-0  14275-3 0  9997,2 53160  53.2189 332.8910 0001880  45.6187 314.4959 15.08837231 26190,6917.889,95.438,541.054,538.453,0.0
53160.0,STARLINK-4096,PAYLOAD,2023-01-04 22:08:09,15.08825911,0.0001915,53.219,330.5122,46.404,313.7111,-5.8217e-06,-3.81e-06,0.0,0 STARLINK-4096,1 53160U 22083AE  23004.92233753 -.00000381  00000-0 -58217-5 0  9995,2 53160  53.2190 330.5122 0001915  46.4040 313.7111 15.08825911 26271,6917.9230000000025,95.438,541.113,538.464,0.0
53160.0,STARLINK-4096,PAYLOAD,2023-01-05 09:15:50,15.08849343,0.0001843,53.2179,328.43,48.7698,311.3452,0.00035253,5.328e-05,0.0,0 STARLINK-4096,1 53160U 22083AE  23005.38600580  .00005328  00000-0  35253-3 0  9999,2 53160  53.2179 328.4300 0001843  48.7698 311.3452 15.08849343 26970,6917.852,95.437,540.992,538.442,0.0
53160.0,STARLINK-4096,PAYLOAD,2023-01-05 14:02:01,15.08821417,0.0001553,53.2182,327.5378,52.8736,307.2398,-0.00020601,-3.563e-05,0.0,0 STARLINK-4096,1 53160U 22083AE  23005.58473592 -.00003563  00000-0 -20601-3 0  9994,2 53160  53.2182 327.5378 0001553  52.8736 307.2398 15.08821417 26375,6917.937,95.439,540.877,538.7280000000002,0.0
53160.0,STARLINK-4096,PAYLOAD,2023-01-06 07:31:15,15.08849868,0.0001643,53.2179,324.2671,58.9416,301.1737,0.00072208,0.00011226,0.0,0 STARLINK-4096,1 53160U 22083AE  23006.31337416  .00011226  00000-0  72208-3 0  9993,2 53160  53.2179 324.2671 0001643  58.9416 301.1737 15.08849868 27116,6917.85,95.437,540.852,538.5790000000002,0.0
53160.0,STARLINK-4096,PAYLOAD,2023-01-06 20:14:21,15.0883824,0.0002078,53.2179,321.8882,73.7711,286.351,0.00043741,6.68e-05,0.0,0 STARLINK-4096,1 53160U 22083AE  23006.84330019  .00006680  00000-0  43741-3 0  9991,2 53160  53.2179 321.8882 0002078  73.7711 286.3510 15.08838240 27192,6917.886,95.438,541.188,538.313,0.0
53160.0,STARLINK-4096,PAYLOAD,2023-01-07 05:46:39,15.08854246,0.0001595999999999,53.2179,320.1044,72.0321,288.0845,0.00092754,0.0001450999999999,0.0,0 STARLINK-4096,1 53160U 22083AE  23007.24073799  .00014510  00000-0  92754-3 0  9994,2 53160  53.2179 320.1044 0001596  72.0321 288.0845 15.08854246 26628,6917.837,95.437,540.806,538.5980000000002,0.0
53160.0,STARLINK-4096,PAYLOAD,2023-01-07 08:57:25,15.08859207,0.0001603,53.2176,319.5102,68.0428,292.0735,0.0014371,0.00022669,0.0,0 STARLINK-4096,1 53160U 22083AE  23007.37321737  .00022669  00000-0  14371-2 0  9998,2 53160  53.2176 319.5102 0001603  68.0428 292.0735 15.08859207 27271,6917.821999999999,95.436,540.7959999999998,538.578,0.0
53160.0,STARLINK-4096,PAYLOAD,2023-01-07 20:05:08,15.08848197,0.0001705,53.2159,317.4263,81.9128,278.2058,0.00093081,0.0001456,0.0,0 STARLINK-4096,1 53160U 22083AE  23007.83690018  .00014560  00000-0  93081-3 0  9997,2 53160  53.2159 317.4263 0001705  81.9128 278.2058 15.08848197 27349,6917.855,95.437,540.9,538.5409999999998,0.0
53160.0,STARLINK-4096,PAYLOAD,2023-01-08 13:34:22,15.08856322,0.000164,53.217,314.1557,89.538,270.58,0.0011499,0.00018068,0.0,0 STARLINK-4096,1 53160U 22083AE  23008.56553702  .00018068  00000-0  11499-2 0  9995,2 53160  53.2170 314.1557 0001640  89.5380 270.5800 15.08856322 26825,6917.83,95.437,540.83,538.561,0.0
53160.0,STARLINK-4096,PAYLOAD,2023-01-08 19:55:55,15.08848848,0.0002202,53.2173,312.9681,88.9946,271.1298,0.0011203,0.00017591,0.0,0 STARLINK-4096,1 53160U 22083AE  23008.83049935  .00017591  00000-0  11203-2 0  9996,2 53160  53.2173 312.9681 0002202  88.9946 271.1298 15.08848848 27494,6917.853,95.437,541.242,538.195,0.0
53160.0,STARLINK-4096,PAYLOAD,2023-01-09 13:25:09,15.08836294,0.0002433,53.2173,309.6975,84.5716,275.5554,0.00028907,4.315e-05,0.0,0 STARLINK-4096,1 53160U 22083AE  23009.55914267  .00004315  00000-0  28907-3 0  9995,2 53160  53.2173 309.6975 0002433  84.5716 275.5554 15.08836294 27604,6917.892,95.438,541.44,538.0740000000002,0.0
53160.0,STARLINK-4096,PAYLOAD,2023-01-10 13:15:56,15.08842562,0.0001288,53.2169,305.2374,81.9973,278.1165,0.00064485,9.990000000000004e-05,0.0,0 STARLINK-4096,1 53160U 22083AE  23010.55274272  .00009990  00000-0  64485-3 0  9997,2 53160  53.2169 305.2374 0001288  81.9973 278.1165 15.08842562 27126,6917.873000000001,95.437,540.629,538.847,0.0
53160.0,STARLINK-4096,PAYLOAD,2023-01-11 01:59:01,15.08856568,0.0001415,53.2176,302.8579,85.311,274.8044,0.00079952,0.00012465,0.0,0 STARLINK-4096,1 53160U 22083AE  23011.08266042  .00012465  00000-0  79952-3 0  9998,2 53160  53.2176 302.8579 0001415  85.3110 274.8044 15.08856568 27835,6917.83,95.437,540.674,538.716,0.0
53160.0,STARLINK-4096,PAYLOAD,2023-01-11 19:28:16,15.08846834,0.000132,53.217,299.5851,100.3356,259.7785,0.00029233,4.368e-05,0.0,0 STARLINK-4096,1 53160U 22083AE  23011.81129981  .00004368  00000-0  29233-3 0  9999,2 53160  53.2170 299.5851 0001320 100.3356 259.7785 15.08846834 27940,6917.86,95.437,540.638,538.811,0.0
